KUIPER-00572            
1 69272U 26118F   26196.16670139 -.01070204  00000+0 -44075-1 0  9997
2 69272  51.8728 278.4491 0005747 282.3605 296.1751 15.26505834  5761
KUIPER-00581            
1 69273U 26118G   26196.16670139  .00012305  00000+0  92659-3 0  9996
2 69273  51.8907 280.3701 0001541  17.1328 290.9574 15.02840969  5907
KUIPER-00584            
1 69274U 26118H   26196.16670139  .00003645  00000+0  38979-3 0  9999
2 69274  51.8944 282.3696 0010467 320.3567  27.9039 14.90923837  5563
KUIPER-00587            
1 69275U 26118J   26195.57934613 -.00002321  00000+0 -52239-4 0  9992
2 69275  51.8629 280.9805 0007243 294.3784  65.6446 15.37092741  8195
KUIPER-00590            
1 69276U 26118K   26196.16670139  .00024956  00000+0  14434-2 0  9998
2 69276  51.8811 278.9511 0002393  76.1419 309.3205 15.12112960  5177
KUIPER-00592            
1 69277U 26118L   26196.16670139 -.01551820  00000+0 -78623-1 0  9996
2 69277  51.8746 278.7110 0001563 188.0526 319.8457 15.19752640  4488
KUIPER-00593            
1 69278U 26118M   26196.16670139  .00047259  00000+0  12190-2 0  9998
2 69278  51.8704 277.6785 0002872 276.0110 337.4575 15.38701113  4487
KUIPER-00594            
1 69279U 26118N   26195.60107314  .00010580  00000+0  29394-3 0  9999
2 69279  51.8707 280.4159 0001936  62.1837 297.9346 15.37429007  8206
KUIPER-00595            
1 69280U 26118P   26195.60371878  .00008464  00000+0  23717-3 0  9990
2 69280  51.8706 280.4327 0001210   0.4399 359.6589 15.37447409  8231
KUIPER-00596            
1 69281U 26118Q   26196.16670139 -.00005460  00000+0 -51727-3 0  9992
2 69281  51.8926 282.2316 0009589 315.4644 130.2993 14.91353911  5112
KUIPER-00597            
1 69282U 26118R   26195.56559115  .00011600  00000+0  31763-3 0  9995
2 69282  51.8651 280.9011 0006195 285.6770  74.3533 15.37767027  8190
KUIPER-00599            
1 69283U 26118S   26196.20905892 -.00406744  00000+0 -11803-1 0  9995
2 69283  51.8697 277.7341 0005544 285.8786  74.1589 15.36592019  8293
KUIPER-00600            
1 69284U 26118T   26195.57574759  .00011717  00000+0  32417-3 0  9995
2 69284  51.8644 280.9623 0007931 285.9349  74.0764 15.37425766  8191
KUIPER-00601            
1 69285U 26118U   26196.16670139 -.01181859  00000+0 -61321-1 0  9993
2 69285  51.8852 278.8728 0002891 284.7889  99.6682 15.18587081  5783
KUIPER-00602            
1 69286U 26118V   26196.16670139  .00047932  00000+0  12978-2 0  9999
2 69286  51.8694 277.6609 0002459 286.6132 334.3414 15.37199005  4669
KUIPER-00603            
1 69287U 26118W   26196.16670139  .00001296  00000+0  50179-4 0  9990
2 69287  51.8690 277.8576 0003626 282.0531 231.8687 15.33934777  5912
