{"fetched_at":"2026-07-15T17:46:44.919Z","source":"https://celestrak.org/NORAD/elements/gp.php?GROUP=kuiper&FORMAT=JSON","constellation":"kuiper","records":[{"OBJECT_NAME":"KUIPER-00572","OBJECT_ID":"2026-118F","EPOCH":"2026-07-15T04:00:03.000096","CLASSIFICATION_TYPE":"U","MEAN_MOTION":15.26505834,"ECCENTRICITY":0.0005747,"INCLINATION":51.8728,"RA_OF_ASC_NODE":278.4491,"ARG_OF_PERICENTER":282.3605,"MEAN_ANOMALY":296.1751,"EPHEMERIS_TYPE":0,"NORAD_CAT_ID":69272,"ELEMENT_SET_NO":999,"REV_AT_EPOCH":576,"BSTAR":-0.044075,"MEAN_MOTION_DOT":-0.01070204,"MEAN_MOTION_DDOT":0},{"OBJECT_NAME":"KUIPER-00581","OBJECT_ID":"2026-118G","EPOCH":"2026-07-15T04:00:03.000096","CLASSIFICATION_TYPE":"U","MEAN_MOTION":15.02840969,"ECCENTRICITY":0.0001541,"INCLINATION":51.8907,"RA_OF_ASC_NODE":280.3701,"ARG_OF_PERICENTER":17.1328,"MEAN_ANOMALY":290.9574,"EPHEMERIS_TYPE":0,"NORAD_CAT_ID":69273,"ELEMENT_SET_NO":999,"REV_AT_EPOCH":590,"BSTAR":0.00092659,"MEAN_MOTION_DOT":0.00012305,"MEAN_MOTION_DDOT":0},{"OBJECT_NAME":"KUIPER-00584","OBJECT_ID":"2026-118H","EPOCH":"2026-07-15T04:00:03.000096","CLASSIFICATION_TYPE":"U","MEAN_MOTION":14.90923837,"ECCENTRICITY":0.0010467,"INCLINATION":51.8944,"RA_OF_ASC_NODE":282.3696,"ARG_OF_PERICENTER":320.3567,"MEAN_ANOMALY":27.9039,"EPHEMERIS_TYPE":0,"NORAD_CAT_ID":69274,"ELEMENT_SET_NO":999,"REV_AT_EPOCH":556,"BSTAR":0.00038979,"MEAN_MOTION_DOT":0.00003645,"MEAN_MOTION_DDOT":0},{"OBJECT_NAME":"KUIPER-00587","OBJECT_ID":"2026-118J","EPOCH":"2026-07-14T13:54:15.505632","CLASSIFICATION_TYPE":"U","MEAN_MOTION":15.37092741,"ECCENTRICITY":0.00072439,"INCLINATION":51.8629,"RA_OF_ASC_NODE":280.9805,"ARG_OF_PERICENTER":294.3784,"MEAN_ANOMALY":65.6446,"EPHEMERIS_TYPE":0,"NORAD_CAT_ID":69275,"ELEMENT_SET_NO":999,"REV_AT_EPOCH":819,"BSTAR":-0.000052239488,"MEAN_MOTION_DOT":-0.00002321,"MEAN_MOTION_DDOT":0},{"OBJECT_NAME":"KUIPER-00590","OBJECT_ID":"2026-118K","EPOCH":"2026-07-15T04:00:03.000096","CLASSIFICATION_TYPE":"U","MEAN_MOTION":15.1211296,"ECCENTRICITY":0.0002393,"INCLINATION":51.8811,"RA_OF_ASC_NODE":278.9511,"ARG_OF_PERICENTER":76.1419,"MEAN_ANOMALY":309.3205,"EPHEMERIS_TYPE":0,"NORAD_CAT_ID":69276,"ELEMENT_SET_NO":999,"REV_AT_EPOCH":517,"BSTAR":0.0014434,"MEAN_MOTION_DOT":0.00024956,"MEAN_MOTION_DDOT":0},{"OBJECT_NAME":"KUIPER-00592","OBJECT_ID":"2026-118L","EPOCH":"2026-07-15T04:00:03.000096","CLASSIFICATION_TYPE":"U","MEAN_MOTION":15.1975264,"ECCENTRICITY":0.0001563,"INCLINATION":51.8746,"RA_OF_ASC_NODE":278.711,"ARG_OF_PERICENTER":188.0526,"MEAN_ANOMALY":319.8457,"EPHEMERIS_TYPE":0,"NORAD_CAT_ID":69277,"ELEMENT_SET_NO":999,"REV_AT_EPOCH":448,"BSTAR":-0.078623,"MEAN_MOTION_DOT":-0.0155182,"MEAN_MOTION_DDOT":0},{"OBJECT_NAME":"KUIPER-00593","OBJECT_ID":"2026-118M","EPOCH":"2026-07-15T04:00:03.000096","CLASSIFICATION_TYPE":"U","MEAN_MOTION":15.38701113,"ECCENTRICITY":0.0002872,"INCLINATION":51.8704,"RA_OF_ASC_NODE":277.6785,"ARG_OF_PERICENTER":276.011,"MEAN_ANOMALY":337.4575,"EPHEMERIS_TYPE":0,"NORAD_CAT_ID":69278,"ELEMENT_SET_NO":999,"REV_AT_EPOCH":448,"BSTAR":0.001219,"MEAN_MOTION_DOT":0.00047259,"MEAN_MOTION_DDOT":0},{"OBJECT_NAME":"KUIPER-00594","OBJECT_ID":"2026-118N","EPOCH":"2026-07-14T14:25:32.719296","CLASSIFICATION_TYPE":"U","MEAN_MOTION":15.37429007,"ECCENTRICITY":0.00019369,"INCLINATION":51.8707,"RA_OF_ASC_NODE":280.4159,"ARG_OF_PERICENTER":62.1837,"MEAN_ANOMALY":297.9346,"EPHEMERIS_TYPE":0,"NORAD_CAT_ID":69279,"ELEMENT_SET_NO":999,"REV_AT_EPOCH":820,"BSTAR":0.00029394088,"MEAN_MOTION_DOT":0.0001058,"MEAN_MOTION_DDOT":0},{"OBJECT_NAME":"KUIPER-00595","OBJECT_ID":"2026-118P","EPOCH":"2026-07-14T14:29:21.302592","CLASSIFICATION_TYPE":"U","MEAN_MOTION":15.37447409,"ECCENTRICITY":0.00012109,"INCLINATION":51.8706,"RA_OF_ASC_NODE":280.4327,"ARG_OF_PERICENTER":0.4399,"MEAN_ANOMALY":359.6589,"EPHEMERIS_TYPE":0,"NORAD_CAT_ID":69280,"ELEMENT_SET_NO":999,"REV_AT_EPOCH":823,"BSTAR":0.00023716943,"MEAN_MOTION_DOT":0.00008464,"MEAN_MOTION_DDOT":0},{"OBJECT_NAME":"KUIPER-00596","OBJECT_ID":"2026-118Q","EPOCH":"2026-07-15T04:00:03.000096","CLASSIFICATION_TYPE":"U","MEAN_MOTION":14.91353911,"ECCENTRICITY":0.0009589,"INCLINATION":51.8926,"RA_OF_ASC_NODE":282.2316,"ARG_OF_PERICENTER":315.4644,"MEAN_ANOMALY":130.2993,"EPHEMERIS_TYPE":0,"NORAD_CAT_ID":69281,"ELEMENT_SET_NO":999,"REV_AT_EPOCH":511,"BSTAR":-0.00051727,"MEAN_MOTION_DOT":-0.0000546,"MEAN_MOTION_DDOT":0},{"OBJECT_NAME":"KUIPER-00597","OBJECT_ID":"2026-118R","EPOCH":"2026-07-14T13:34:27.075360","CLASSIFICATION_TYPE":"U","MEAN_MOTION":15.37767027,"ECCENTRICITY":0.0006195,"INCLINATION":51.8651,"RA_OF_ASC_NODE":280.9011,"ARG_OF_PERICENTER":285.677,"MEAN_ANOMALY":74.3533,"EPHEMERIS_TYPE":0,"NORAD_CAT_ID":69282,"ELEMENT_SET_NO":999,"REV_AT_EPOCH":819,"BSTAR":0.00031763,"MEAN_MOTION_DOT":0.000116,"MEAN_MOTION_DDOT":0},{"OBJECT_NAME":"KUIPER-00599","OBJECT_ID":"2026-118S","EPOCH":"2026-07-15T05:01:02.690688","CLASSIFICATION_TYPE":"U","MEAN_MOTION":15.36592019,"ECCENTRICITY":0.0005544,"INCLINATION":51.8697,"RA_OF_ASC_NODE":277.7341,"ARG_OF_PERICENTER":285.8786,"MEAN_ANOMALY":74.1589,"EPHEMERIS_TYPE":0,"NORAD_CAT_ID":69283,"ELEMENT_SET_NO":999,"REV_AT_EPOCH":829,"BSTAR":-0.011803,"MEAN_MOTION_DOT":-0.00406744,"MEAN_MOTION_DDOT":0},{"OBJECT_NAME":"KUIPER-00600","OBJECT_ID":"2026-118T","EPOCH":"2026-07-14T13:49:04.591776","CLASSIFICATION_TYPE":"U","MEAN_MOTION":15.37425766,"ECCENTRICITY":0.00079312,"INCLINATION":51.8644,"RA_OF_ASC_NODE":280.9623,"ARG_OF_PERICENTER":285.9349,"MEAN_ANOMALY":74.0764,"EPHEMERIS_TYPE":0,"NORAD_CAT_ID":69284,"ELEMENT_SET_NO":999,"REV_AT_EPOCH":819,"BSTAR":0.00032416858,"MEAN_MOTION_DOT":0.00011717,"MEAN_MOTION_DDOT":0},{"OBJECT_NAME":"KUIPER-00601","OBJECT_ID":"2026-118U","EPOCH":"2026-07-15T04:00:03.000096","CLASSIFICATION_TYPE":"U","MEAN_MOTION":15.18587081,"ECCENTRICITY":0.0002891,"INCLINATION":51.8852,"RA_OF_ASC_NODE":278.8728,"ARG_OF_PERICENTER":284.7889,"MEAN_ANOMALY":99.6682,"EPHEMERIS_TYPE":0,"NORAD_CAT_ID":69285,"ELEMENT_SET_NO":999,"REV_AT_EPOCH":578,"BSTAR":-0.061321,"MEAN_MOTION_DOT":-0.01181859,"MEAN_MOTION_DDOT":0},{"OBJECT_NAME":"KUIPER-00602","OBJECT_ID":"2026-118V","EPOCH":"2026-07-15T04:00:03.000096","CLASSIFICATION_TYPE":"U","MEAN_MOTION":15.37199005,"ECCENTRICITY":0.0002459,"INCLINATION":51.8694,"RA_OF_ASC_NODE":277.6609,"ARG_OF_PERICENTER":286.6132,"MEAN_ANOMALY":334.3414,"EPHEMERIS_TYPE":0,"NORAD_CAT_ID":69286,"ELEMENT_SET_NO":999,"REV_AT_EPOCH":466,"BSTAR":0.0012978,"MEAN_MOTION_DOT":0.00047932,"MEAN_MOTION_DDOT":0},{"OBJECT_NAME":"KUIPER-00603","OBJECT_ID":"2026-118W","EPOCH":"2026-07-15T04:00:03.000096","CLASSIFICATION_TYPE":"U","MEAN_MOTION":15.33934777,"ECCENTRICITY":0.0003626,"INCLINATION":51.869,"RA_OF_ASC_NODE":277.8576,"ARG_OF_PERICENTER":282.0531,"MEAN_ANOMALY":231.8687,"EPHEMERIS_TYPE":0,"NORAD_CAT_ID":69287,"ELEMENT_SET_NO":999,"REV_AT_EPOCH":591,"BSTAR":0.000050179,"MEAN_MOTION_DOT":0.00001296,"MEAN_MOTION_DDOT":0}]}
